     2.10           N: GPS NAV DATA                         RINEX VERSION / TYPE
teqc  2009Mar23                         20140509 00:19:20UTCPGM / RUN BY / DATE
    16                                                      LEAP SECONDS
Linux 2.4.20-8|Pentium IV|gcc -static|Linux|486/DX+         COMMENT
teqc  2009Mar23                         20140508 01:05:02UTCCOMMENT
                                                            END OF HEADER
10 14  5  8  8  0  0.0-1.246719621122D-04-1.591615728103D-12 0.000000000000D+00
    6.300000000000D+01 3.993750000000D+01 5.192716297477D-09 1.508739213136D+00
    2.138316631317D-06 1.353799016215D-02 8.346512913704D-06 5.153731342316D+03
    3.744000000000D+05-3.650784492493D-07-2.647974253042D-01 1.154839992523D-07
    9.424244984603D-01 2.130937500000D+02 8.631151684855D-01-8.454637883890D-09
    8.071764792832D-11 1.000000000000D+00 1.791000000000D+03 0.000000000000D+00
    2.000000000000D+00 0.000000000000D+00-2.793967723846D-09 6.300000000000D+01
    3.698700000000D+05 4.000000000000D+00
12 14  5  8  8  0  0.0 2.035554498434D-04 2.501110429876D-12 0.000000000000D+00
    1.020000000000D+02 1.937500000000D+01 3.788014928884D-09-2.759019222282D+00
    1.030042767525D-06 5.117025575601D-03 6.901100277901D-06 5.153631578445D+03
    3.744000000000D+05 1.490116119385D-08 2.902616579414D+00 1.303851604462D-08
    9.876450605697D-01 2.615312500000D+02 4.176228404219D-01-7.746751254713D-09
    3.464430021702D-10 1.000000000000D+00 1.791000000000D+03 0.000000000000D+00
    2.000000000000D+00 0.000000000000D+00-1.210719347000D-08 1.020000000000D+02
    3.698700000000D+05 4.000000000000D+00
13 14  5  8  8  0  0.0 1.955311745405D-06-3.751665644813D-12 0.000000000000D+00
    1.790000000000D+02 2.593750000000D+00 4.299821961987D-09 3.985034198384D-03
    1.303851604462D-08 5.381919909269D-03 5.908310413361D-06 5.153590316772D+03
    3.744000000000D+05 0.000000000000D+00 8.749946674743D-01-1.247972249985D-07
    9.778588978738D-01 2.762187500000D+02 2.247938815652D+00-8.080693736186D-09
   -3.178703834345D-10 1.000000000000D+00 1.791000000000D+03 0.000000000000D+00
    2.800000000000D+00 0.000000000000D+00-1.117587089539D-08 1.790000000000D+02
    3.698700000000D+05 4.000000000000D+00
21 14  5  8  8  0  0.0-3.598425537348D-04-2.160049916711D-12 0.000000000000D+00
    4.000000000000D+01-3.650000000000D+01 5.070211194648D-09 3.005791475097D+00
   -2.078711986542D-06 2.146461035591D-02 1.014210283756D-05 5.153768890381D+03
    3.744000000000D+05 1.490116119385D-07-1.332352037970D+00-3.203749656677D-07
    9.320079511979D-01 1.660937500000D+02-2.029097418429D+00-7.944616639458D-09
   -4.857345185067D-11 1.000000000000D+00 1.791000000000D+03 0.000000000000D+00
    2.000000000000D+00 0.000000000000D+00-1.117587089539D-08 4.000000000000D+01
    3.698700000000D+05 4.000000000000D+00
25 14  5  8  8  0  0.0 2.345023676753D-05 6.821210263297D-13 0.000000000000D+00
    2.700000000000D+01 2.671875000000D+01 4.011952828225D-09 2.752937931806D+00
    1.411885023117D-06 3.564170445316D-03 6.899237632751D-06 5.153618165970D+03
    3.744000000000D+05 8.940696716309D-08 2.860426531104D+00-3.539025783539D-08
    9.763455076579D-01 2.557812500000D+02 6.619569354491D-01-7.918544124861D-09
    3.496574217780D-10 1.000000000000D+00 1.791000000000D+03 0.000000000000D+00
    2.000000000000D+00 0.000000000000D+00 5.122274160385D-09 2.700000000000D+01
    3.698700000000D+05 4.000000000000D+00
26 14  5  8  8  0  0.0 8.533941581845D-05-1.159605744760D-11 0.000000000000D+00
    1.700000000000D+01 9.562500000000D+00 4.499830293136D-09-7.926555931957D-01
    7.245689630508D-07 2.141531358939D-02 6.118789315224D-06 5.153690521240D+03
    3.744000000000D+05-2.440065145493D-07 8.663214460398D-01 3.222376108170D-07
    9.752531920786D-01 2.703437500000D+02 1.281742189524D+00-8.432136946635D-09
   -3.067984936744D-10 1.000000000000D+00 1.791000000000D+03 0.000000000000D+00
    2.000000000000D+00 0.000000000000D+00-6.053596735001D-09 1.700000000000D+01
    3.703200000000D+05 4.000000000000D+00
29 14  5  8  8  0  0.0 5.310405977070D-04 2.728484105319D-12 0.000000000000D+00
    1.020000000000D+02-4.278125000000D+01 4.507330605555D-09-3.077252136932D+00
   -2.272427082062D-06 1.625615986995D-03 5.798414349556D-06 5.153710245132D+03
    3.744000000000D+05-2.980232238770D-08-2.321241502009D+00 9.126961231232D-08
    9.691667023919D-01 2.675937500000D+02-8.861255371540D-01-8.138910446860D-09
    8.071764792832D-11 1.000000000000D+00 1.791000000000D+03 0.000000000000D+00
    2.000000000000D+00 0.000000000000D+00-9.778887033463D-09 1.020000000000D+02
    3.698700000000D+05 4.000000000000D+00
 4 14  5  8  8  0  0.0 6.856862455606D-06 0.000000000000D+00 0.000000000000D+00
    9.800000000000D+01-3.634375000000D+01 5.062353724495D-09 2.289586134521D+00
   -1.979991793633D-06 1.056221162435D-02 9.153038263321D-06 5.153733196259D+03
    3.744000000000D+05 1.490116119385D-08-1.333783586697D+00-2.160668373108D-07
    9.380912224648D-01 1.920312500000D+02 1.093292378507D+00-8.078550789781D-09
   -6.428839215530D-12 1.000000000000D+00 1.791000000000D+03 0.000000000000D+00
    2.800000000000D+00 0.000000000000D+00-6.519258022308D-09 9.800000000000D+01
    3.698400000000D+05 4.000000000000D+00
23 14  5  8  8  0  0.0-1.875683665276D-05-3.069544618484D-12 0.000000000000D+00
    4.400000000000D+01 7.843750000000D+00 4.947348934084D-09-6.640265578400D-01
    2.533197402954D-07 9.246050845832D-03 5.269423127174D-06 5.153552719116D+03
    3.744000000000D+05 2.235174179077D-07 7.782698566006D-01 5.960464477539D-08
    9.521334571174D-01 2.725937500000D+02-2.786812842992D+00-8.419279268204D-09
   -3.160845947635D-10 1.000000000000D+00 1.791000000000D+03 0.000000000000D+00
    2.000000000000D+00 0.000000000000D+00-2.002343535423D-08 4.400000000000D+01
    3.679200000000D+05 4.000000000000D+00
31 14  5  8  8  0  0.0 3.342521376908D-04 0.000000000000D+00 0.000000000000D+00
    1.560000000000D+02-1.062500000000D+00 3.939806965917D-09-2.452912088880D+00
   -5.215406417847D-08 7.997756358236D-03 9.488314390182D-06 5.153547721863D+03
    3.744000000000D+05-5.587935447693D-08 1.845971308206D+00 1.303851604462D-07
    9.783100910679D-01 2.069062500000D+02-6.367711154329D-01-7.777109662120D-09
   -2.314382117591D-10 1.000000000000D+00 1.791000000000D+03 0.000000000000D+00
    2.000000000000D+00 0.000000000000D+00-1.303851604462D-08 1.560000000000D+02
    3.697500000000D+05 4.000000000000D+00
13 14  5  8  7 59 44.0 1.954846084118D-06-3.751665644813D-12 0.000000000000D+00
    4.000000000000D+00 2.593750000000D+00 4.299464804252D-09 1.650740668546D-03
    1.303851604462D-08 5.381917813793D-03 5.908310413361D-06 5.153590318680D+03
    3.743840000000D+05 0.000000000000D+00 8.749948196178D-01-1.247972249985D-07
    9.778588964109D-01 2.762187500000D+02 2.247939258916D+00-8.080693736186D-09
   -3.178703834345D-10 1.000000000000D+00 1.791000000000D+03 0.000000000000D+00
    2.000000000000D+00 0.000000000000D+00-1.117587089539D-08 4.000000000000D+00
    3.711600000000D+05 4.000000000000D+00
15 14  5  8  8  0  0.0-1.782695762813D-04-2.160049916711D-12 0.000000000000D+00
    5.500000000000D+01 9.187500000000D+00 5.294863409457D-09-2.527325248555D-01
    3.483146429062D-07 6.251092068851D-03 5.383044481277D-06 5.153683916092D+03
    3.744000000000D+05 5.774199962616D-08 7.318863463012D-01 6.705522537231D-08
    9.370955706605D-01 2.616562500000D+02 2.750217948702D-01-8.597500977568D-09
   -3.121558596874D-10 1.000000000000D+00 1.791000000000D+03 0.000000000000D+00
    2.000000000000D+00 0.000000000000D+00-1.024454832077D-08 5.500000000000D+01
    3.720000000000D+05 4.000000000000D+00
16 14  5  8  8  0  0.0-2.195108681917D-04 1.932676241267D-12 0.000000000000D+00
    3.300000000000D+01 2.634375000000D+01 3.820516282696D-09 1.377004702596D+00
    1.486390829086D-06 7.741845678538D-03 7.227063179016D-06 5.153585573196D+03
    3.744000000000D+05-4.656612873077D-08 2.921153530387D+00 5.401670932770D-08
    9.882569757955D-01 2.542500000000D+02 1.958501459676D-01-7.851041313098D-09
    2.264380034803D-10 1.000000000000D+00 1.791000000000D+03 0.000000000000D+00
    2.000000000000D+00 0.000000000000D+00-1.024454832077D-08 3.300000000000D+01
    3.721800000000D+05 4.000000000000D+00
10 14  5  8  7 59 44.0-1.246705651283D-04-1.591615728103D-12 0.000000000000D+00
    3.000000000000D+00 3.993750000000D+01 5.192716297477D-09 1.506405719822D+00
    2.138316631317D-06 1.353799516801D-02 8.346512913704D-06 5.153731334686D+03
    3.743840000000D+05-3.650784492493D-07-2.647972994933D-01 1.154839992523D-07
    9.424244969974D-01 2.130937500000D+02 8.631150382858D-01-8.454637883890D-09
    8.071764792832D-11 1.000000000000D+00 1.791000000000D+03 0.000000000000D+00
    2.000000000000D+00 0.000000000000D+00-2.793967723846D-09 3.000000000000D+00
    3.726000000000D+05 4.000000000000D+00
18 14  5  8  8  0  0.0 3.179390914738D-04 2.273736754432D-12 0.000000000000D+00
    2.900000000000D+01 4.275000000000D+01 5.437726503135D-09 2.033915032954D+00
    1.935288310051D-06 1.520329981577D-02 8.190050721169D-06 5.153691915512D+03
    3.744000000000D+05-5.960464477539D-08-2.870280425444D-01-3.557652235031D-07
    9.261789394819D-01 2.033750000000D+02-2.041539748817D+00-8.362491188467D-09
    1.439345668810D-10 1.000000000000D+00 1.791000000000D+03 0.000000000000D+00
    2.000000000000D+00 0.000000000000D+00-1.117587089539D-08 2.900000000000D+01
    3.734700000000D+05 4.000000000000D+00
